{"fetched_at":"2026-05-19T14:59:51Z","count":17004,"tles":[{"name":"SL-6 R/B(2)","line1":"1 16402U 85117F   26090.35985400  .00000376  00000+0  54648-3 0  9991","line2":"2 16402  63.3045  43.7655 7383799 253.0953  20.6023  1.96545999289042","category":"Other"},{"name":"INMARSAT 5-F4","line1":"1 42698U 17025A   26139.17831845  .00000075  00000+0  00000+0 0  9992","line2":"2 42698   0.0163 323.1144 0000340 346.4820  47.9506  1.00272009 32987","category":"Other"},{"name":"STARLINK-5098","line1":"1 54013U 22125BB  26139.03725554  .00000999  00000+0  80861-4 0  9990","line2":"2 54013  53.2169 248.2735 0001116  89.4321 270.6799 15.08838965200227","category":"Starlink"},{"name":"STARLINK-35845","line1":"1 66366U 25254U   26138.63230728  .00013263  00000+0  45900-3 0  9991","line2":"2 66366  53.1610 267.6149 0001259  82.6307 277.4837 15.30208380 29686","category":"Starlink"},{"name":"IRIDIUM 33 DEB","line1":"1 35620U 97051QS  26104.90649569  .00003690  00000+0  10195-2 0  9994","line2":"2 35620  86.3905 165.3959 0135205 210.1599 149.1770 14.41225239617387","category":"Other"},{"name":"ONEWEB-0455","line1":"1 51645U 22012Z   23362.50252131  .00000548  00000+0  23685-3 0  9996","line2":"2 51645  87.5354 166.2140 0017069 176.5815 183.5496 14.22679277 99170","category":"Other"},{"name":"SITRO-AIS 30","line1":"1 59053U 24039C   25134.30449173  .12826654  26336-5  33893-3 0  9994","line2":"2 59053  97.3852 111.1829 0009677 231.8022 128.2410 16.45062899 67863","category":"Other"},{"name":"FENGYUN 1C DEB","line1":"1 29798U 99025CQ  26104.46111162  .00001068  00000+0  72135-3 0  9990","line2":"2 29798  99.2829 175.2579 0105850 298.1281  72.9977 14.00084890976425","category":"Weather"},{"name":"ONEWEB-0092","line1":"1 45437U 20020P   26139.17045142 -.00000359  00000+0 -10405-2 0  9992","line2":"2 45437  87.8919  26.8350 0001965  90.1819 269.9534 13.11952803298987","category":"Other"},{"name":"STARLINK-5925","line1":"1 55945U 23037AH  26139.19794836  .00001126  00000+0  10216-3 0  9993","line2":"2 55945  69.9989 106.6021 0003268 266.7186  93.3599 14.98323800174548","category":"Starlink"},{"name":"O3B FM2","line1":"1 39190U 13031C   26138.44125101 -.00000018  00000+0  00000+0 0  9996","line2":"2 39190   0.0427 339.3868 0002766  74.1122 306.5280  5.00115996235623","category":"Other"},{"name":"STARLINK-4413","line1":"1 53207U 22084U   26139.12918235 -.00000519  00000+0 -31917-4 0  9996","line2":"2 53207  97.4725 199.2246 0002027 146.4166 213.7189 15.05641593209905","category":"Starlink"},{"name":"STARLINK-11179 [DTC]","line1":"1 60190U 24124H   26138.80918685 -.00001593  00000+0 -82881-5 0  9995","line2":"2 60190  53.1592 175.8454 0000966  76.6195 283.4931 15.69720765107547","category":"Starlink"},{"name":"FENGYUN 1C DEB","line1":"1 31219U 99025BKZ 26101.49470838  .00001955  00000+0  10133-2 0  9993","line2":"2 31219  99.2776 120.9534 0078301 200.4893 159.3132 14.14527864972629","category":"Weather"},{"name":"STARLINK-1982","line1":"1 47580U 21009AJ  23362.32251334  .00000981  00000+0  84791-4 0  9995","line2":"2 47580  53.0543  23.5880 0001419  99.0429 261.0720 15.06390466160454","category":"Starlink"},{"name":"STARLINK-6334","line1":"1 57238U 23094W   26138.76170375 -.00000927  00000+0 -24152-4 0  9996","line2":"2 57238  43.0062 344.4087 0001476 259.1193 100.9492 15.27582640157952","category":"Starlink"},{"name":"YAOGAN-43 02B","line1":"1 60946U 24156B   26139.07711017  .00007158  00000+0  29619-3 0  9998","line2":"2 60946  34.9964  21.0915 0003418 263.2000  96.8326 15.23243655 95003","category":"Other"},{"name":"ELECTRON KICK STAGE R/B","line1":"1 67074U 25297C   26013.67042986  .00493473  83397-4  15161-2 0  9993","line2":"2 67074  97.4743 168.0571 0129608 151.5568 209.2854 15.79274063  4777","category":"Other"},{"name":"STARLINK-32683","line1":"1 62445U 24251P   26138.89600834  .00016879  00000+0  58046-3 0  9999","line2":"2 62445  53.1640   9.4599 0002063  73.6405 286.4822 15.30213691 78697","category":"Starlink"},{"name":"HULIANWANG DIGUI-157","line1":"1 68131U 26047C   26139.19337836 -.00000101  00000+0  49442-4 0  9998","line2":"2 68131  49.9980 160.2137 0000140 331.1738  28.9126 13.29329383  9214","category":"Other"},{"name":"STARLINK-34900","line1":"1 65374U 25190Z   26138.88123323  .00004239  00000+0  15513-3 0  9997","line2":"2 65374  53.1582 202.0118 0001073  90.1057 270.0067 15.30204627 39989","category":"Starlink"},{"name":"FENGYUN 1C DEB","line1":"1 32352U 99025CYV 26101.52411796  .00000604  00000+0  18399-3 0  9997","line2":"2 32352  98.7825  29.8738 0121470 174.1513 186.1127 14.41716142669952","category":"Weather"},{"name":"STARLINK-2494","line1":"1 48487U 21040BM  26138.96958744 -.00001741  00000+0 -44337-4 0  9999","line2":"2 48487  53.1592 227.1895 0001085 101.8937 258.2186 15.31704006277235","category":"Starlink"},{"name":"STARLINK-30564","line1":"1 58043U 23156R   26139.17548575  .00022370  00000+0  76475-3 0  9995","line2":"2 58043  53.1600 111.0878 0001534 109.7809 250.3357 15.30215945147103","category":"Starlink"},{"name":"STARLINK-32954","line1":"1 63567U 25075V   26138.94572743  .00016035  00000+0  59078-3 0  9993","line2":"2 63567  42.9997 233.7069 0001697 265.9541  94.1116 15.27589728 62671","category":"Starlink"},{"name":"STARLINK-6100","line1":"1 76100C 23090AA  23185.63243056 -.00980919  00000-0 -59317-2 0  1858","line2":"2 76100  43.0001 215.1721 0001080 264.9860 282.7299 15.77613136    17","category":"Starlink"},{"name":"STARLINK-5217","line1":"1 54098U 22136AZ  26138.93431314  .00000860  00000+0  72163-4 0  9994","line2":"2 54098  53.2162  19.1140 0002078  91.6811 268.4419 15.08823392197581","category":"Starlink"},{"name":"STARLINK-35470","line1":"1 66430U 25259J   26138.98118639  .00015829  00000+0  58340-3 0  9994","line2":"2 66430  43.0008 237.1933 0001475 277.5202  82.5482 15.27586413 30246","category":"Starlink"},{"name":"COSMOS 2251 DEB","line1":"1 35775U 93036ARV 23178.10085325  .00014869  00000+0  21367-2 0  9991","line2":"2 35775  74.0286 121.7169 0028363 140.8053 231.2092 14.76169326751519","category":"Other"},{"name":"STARLINK-3623","line1":"1 51772U 22017E   26138.94940256 -.00000376  00000+0 -55089-5 0  9992","line2":"2 51772  53.2189  23.7115 0001309  89.1032 271.0110 15.08839924233208","category":"Starlink"},{"name":"FENGYUN 1C DEB","line1":"1 29881U 99025GB  26104.86532791  .00001216  00000+0  12639-2 0  9999","line2":"2 29881  98.7302  68.8644 0291833 110.8295 281.3911 13.60073215949080","category":"Weather"},{"name":"STARLINK-1376","line1":"1 45570U 20025AR  26139.18024347  .00037667  00000+0  10530-2 0  9999","line2":"2 45570  53.1578 108.8153 0005656  45.6867 314.4599 15.36334661336315","category":"Starlink"},{"name":"STARLINK-5912","line1":"1 56020U 23042AL  26138.91876998  .00000145  00000+0  14783-4 0  9997","line2":"2 56020  43.0046   8.8204 0001646 254.6437 105.4233 15.27586763173775","category":"Starlink"},{"name":"STARLINK-4180","line1":"1 53278U 22086AN  26138.96918523 -.00000661  00000+0 -23428-4 0  9993","line2":"2 53278  53.2184 228.6214 0001209  78.8034 281.3094 15.08832073211803","category":"Starlink"},{"name":"STARLINK-32156","line1":"1 60278U 24132A   26139.11213284  .00000841  00000+0  40541-4 0  9998","line2":"2 60278  53.1614  85.2360 0001401  88.7759 271.3402 15.30186070103564","category":"Starlink"},{"name":"STARLINK-34443","line1":"1 64296U 25123F   26139.08615360  .00001277  00000+0  11474-3 0  9996","line2":"2 64296  70.0006  16.9519 0002801 264.9272  95.1567 14.98343684 53388","category":"Starlink"},{"name":"FENGYUN 1C DEB","line1":"1 31302U 99025BPL 26103.09904530  .00002105  00000+0  85790-3 0  9995","line2":"2 31302  99.4020 159.4402 0028286  72.2439 318.1287 14.28422160980909","category":"Weather"},{"name":"STARLINK-2038","line1":"1 47654U 21012AL  23362.48745315  .00006129  00000+0  43003-3 0  9995","line2":"2 47654  53.0542  72.8440 0001261 109.7076 250.4049 15.06394177158553","category":"Starlink"},{"name":"CHANDRAYAAN-3","line1":"1 57320U 23098A   23208.62000000  .00000392  00000+0  00000+0 0  9994","line2":"2 57320  21.3360   6.1160 9054012 182.9630  18.4770  0.46841359   195","category":"Other"},{"name":"STARLINK-32347","line1":"1 61010U 24158W   26139.17383869  .00001231  00000+0  53690-4 0  9997","line2":"2 61010  53.1613  98.0677 0001347  84.3637 275.7518 15.30193010 96375","category":"Starlink"},{"name":"KUIPER-00183","line1":"1 67138U 25301F   26139.14408348  .00002014  00000+0  21783-3 0  9999","line2":"2 67138  51.8945 103.9757 0008888 305.5007  54.5131 14.92541927 24473","category":"Other"},{"name":"STARLINK-32744","line1":"1 62509U 25003Y   26139.01664625  .00014815  00000+0  54656-3 0  9990","line2":"2 62509  43.0033 252.1073 0001484 274.5614  85.5068 15.27594074 77306","category":"Starlink"},{"name":"STARLINK-37058","line1":"1 68195U 26050AE  26139.16670139 -.02852905  00000+0 -87973-1 0  9993","line2":"2 68195  53.1607 298.7137 0000789  52.7414 282.0823 15.36885818  5954","category":"Starlink"},{"name":"STARLINK-35050","line1":"1 65440U 25194G   26139.14817587  .00003439  00000+0  24228-3 0  9991","line2":"2 65440  97.4744 353.6358 0002068  91.5590 268.5874 15.05654971 40258","category":"Starlink"},{"name":"DELFI-C3 (DO-64)","line1":"1 32789U 08021G   23317.65534723  .13045468  24864-5  20295-2 0  9991","line2":"2 32789  97.2561 341.7573 0008058 236.5318 123.5208 16.33971869850591","category":"Other"},{"name":"STARLINK-2704","line1":"1 48643U 21044F   26138.31090742  .00000913  00000+0  41160-4 0  9990","line2":"2 48643  53.1589 150.0933 0001207  82.6722 277.4417 15.31714133274493","category":"Starlink"},{"name":"STARLINK-30421","line1":"1 58107U 23161L   26138.40791368  .00000173  00000+0  16257-4 0  9997","line2":"2 58107  53.1609 188.1732 0001325  85.3799 274.7355 15.34392379145288","category":"Starlink"},{"name":"STARLINK-33772","line1":"1 63656U 25083Y   26138.89166132  .00016130  00000+0  59426-3 0  9999","line2":"2 63656  43.0020 328.7152 0001179 280.6210  79.4509 15.27588023 60834","category":"Starlink"}]}